[{"OBJECT_NAME":"DAQI-1","OBJECT_ID":"2022-039A","EPOCH":"2026-04-26T22:29:30.200640","MEAN_MOTION":14.57645014,"ECCENTRICITY":0.0004931,"INCLINATION":98.1452,"RA_OF_ASC_NODE":56.8578,"ARG_OF_PERICENTER":62.3158,"MEAN_ANOMALY":297.8541,"EPHEMERIS_TYPE":0,"CLASSIFICATION_TYPE":"U","NORAD_CAT_ID":52257,"ELEMENT_SET_NO":999,"REV_AT_EPOCH":21447,"BSTAR":6.6142819e-5,"MEAN_MOTION_DOT":2.56e-6,"MEAN_MOTION_DDOT":0},{"OBJECT_NAME":"BRO-6","OBJECT_ID":"2022-047AE","EPOCH":"2026-04-26T23:20:09.056256","MEAN_MOTION":15.47419326,"ECCENTRICITY":0.00038777,"INCLINATION":97.3394,"RA_OF_ASC_NODE":207.1709,"ARG_OF_PERICENTER":239.8387,"MEAN_ANOMALY":120.2479,"EPHEMERIS_TYPE":0,"CLASSIFICATION_TYPE":"U","NORAD_CAT_ID":52422,"ELEMENT_SET_NO":999,"REV_AT_EPOCH":22322,"BSTAR":0.00071886688,"MEAN_MOTION_DOT":0.00036858,"MEAN_MOTION_DDOT":0},{"OBJECT_NAME":"JILIN-1 GAOFEN 3D27","OBJECT_ID":"2022-048B","EPOCH":"2026-04-26T21:55:40.360512","MEAN_MOTION":15.65723044,"ECCENTRICITY":0.00054989,"INCLINATION":97.5658,"RA_OF_ASC_NODE":226.6522,"ARG_OF_PERICENTER":212.8623,"MEAN_ANOMALY":147.2295,"EPHEMERIS_TYPE":0,"CLASSIFICATION_TYPE":"U","NORAD_CAT_ID":52444,"ELEMENT_SET_NO":999,"REV_AT_EPOCH":22143,"BSTAR":0.00081436595,"MEAN_MOTION_DOT":0.00082784,"MEAN_MOTION_DDOT":0},{"OBJECT_NAME":"JILIN-1 GAOFEN 3D28","OBJECT_ID":"2022-048C","EPOCH":"2026-04-26T22:11:33.676512","MEAN_MOTION":15.6754515,"ECCENTRICITY":0.00039723,"INCLINATION":97.5599,"RA_OF_ASC_NODE":226.6675,"ARG_OF_PERICENTER":222.3444,"MEAN_ANOMALY":137.751,"EPHEMERIS_TYPE":0,"CLASSIFICATION_TYPE":"U","NORAD_CAT_ID":52445,"ELEMENT_SET_NO":999,"REV_AT_EPOCH":22147,"BSTAR":0.00080469462,"MEAN_MOTION_DOT":0.00088028,"MEAN_MOTION_DDOT":0},{"OBJECT_NAME":"VIGORIDE-3","OBJECT_ID":"2022-057AE","EPOCH":"2026-04-26T20:11:22.784352","MEAN_MOTION":15.26724015,"ECCENTRICITY":0.00072919,"INCLINATION":97.6522,"RA_OF_ASC_NODE":255.5005,"ARG_OF_PERICENTER":310.2437,"MEAN_ANOMALY":49.8162,"EPHEMERIS_TYPE":0,"CLASSIFICATION_TYPE":"U","NORAD_CAT_ID":52760,"ELEMENT_SET_NO":999,"REV_AT_EPOCH":21732,"BSTAR":0.0002429731,"MEAN_MOTION_DOT":6.312e-5,"MEAN_MOTION_DDOT":0},{"OBJECT_NAME":"ION SCV-006","OBJECT_ID":"2022-057AF","EPOCH":"2026-04-26T22:09:30.119328","MEAN_MOTION":15.44141039,"ECCENTRICITY":0.00164651,"INCLINATION":97.6029,"RA_OF_ASC_NODE":263.1563,"ARG_OF_PERICENTER":301.4613,"MEAN_ANOMALY":58.5024,"EPHEMERIS_TYPE":0,"CLASSIFICATION_TYPE":"U","NORAD_CAT_ID":52761,"ELEMENT_SET_NO":999,"REV_AT_EPOCH":21820,"BSTAR":0.00023133362,"MEAN_MOTION_DOT":0.00010553,"MEAN_MOTION_DDOT":0},{"OBJECT_NAME":"SHERPA-AC1","OBJECT_ID":"2022-057AH","EPOCH":"2026-04-26T22:09:36.562176","MEAN_MOTION":15.35511591,"ECCENTRICITY":0.00063535,"INCLINATION":97.661,"RA_OF_ASC_NODE":264.0641,"ARG_OF_PERICENTER":274.5368,"MEAN_ANOMALY":85.5149,"EPHEMERIS_TYPE":0,"CLASSIFICATION_TYPE":"U","NORAD_CAT_ID":52763,"ELEMENT_SET_NO":999,"REV_AT_EPOCH":21783,"BSTAR":0.00024678514,"MEAN_MOTION_DOT":8.436e-5,"MEAN_MOTION_DDOT":0},{"OBJECT_NAME":"OMNI-L2","OBJECT_ID":"2022-057AR","EPOCH":"2026-04-26T17:12:29.727072","MEAN_MOTION":14.81229617,"ECCENTRICITY":0.000812,"INCLINATION":97.4744,"RA_OF_ASC_NODE":182.5313,"ARG_OF_PERICENTER":127.1978,"MEAN_ANOMALY":232.9978,"EPHEMERIS_TYPE":0,"CLASSIFICATION_TYPE":"U","NORAD_CAT_ID":52771,"ELEMENT_SET_NO":999,"REV_AT_EPOCH":21277,"BSTAR":0.00020776095,"MEAN_MOTION_DOT":1.571e-5,"MEAN_MOTION_DDOT":0},{"OBJECT_NAME":"STEP CUBE LAB-II","OBJECT_ID":"2022-065D","EPOCH":"2026-04-26T22:02:28.043232","MEAN_MOTION":14.63216526,"ECCENTRICITY":0.00085729,"INCLINATION":98.2147,"RA_OF_ASC_NODE":261.0006,"ARG_OF_PERICENTER":176.991,"MEAN_ANOMALY":183.1345,"EPHEMERIS_TYPE":0,"CLASSIFICATION_TYPE":"U","NORAD_CAT_ID":52897,"ELEMENT_SET_NO":999,"REV_AT_EPOCH":20400,"BSTAR":0.00021417522,"MEAN_MOTION_DOT":1.055e-5,"MEAN_MOTION_DDOT":0},{"OBJECT_NAME":"RANDEV","OBJECT_ID":"2022-065E","EPOCH":"2026-04-26T22:23:27.421728","MEAN_MOTION":14.63600107,"ECCENTRICITY":0.00078926,"INCLINATION":98.2135,"RA_OF_ASC_NODE":261.344,"ARG_OF_PERICENTER":176.6544,"MEAN_ANOMALY":183.4712,"EPHEMERIS_TYPE":0,"CLASSIFICATION_TYPE":"U","NORAD_CAT_ID":52898,"ELEMENT_SET_NO":999,"REV_AT_EPOCH":20375,"BSTAR":0.00019162055,"MEAN_MOTION_DOT":9.47e-6,"MEAN_MOTION_DDOT":0},{"OBJECT_NAME":"SNUGLITE-II","OBJECT_ID":"2022-065F","EPOCH":"2026-04-26T22:02:00.885120","MEAN_MOTION":14.64246653,"ECCENTRICITY":0.00076212,"INCLINATION":98.2129,"RA_OF_ASC_NODE":261.8628,"ARG_OF_PERICENTER":175.265,"MEAN_ANOMALY":184.8626,"EPHEMERIS_TYPE":0,"CLASSIFICATION_TYPE":"U","NORAD_CAT_ID":52899,"ELEMENT_SET_NO":999,"REV_AT_EPOCH":20349,"BSTAR":0.00021310152,"MEAN_MOTION_DOT":1.075e-5,"MEAN_MOTION_DDOT":0},{"OBJECT_NAME":"MIMAN","OBJECT_ID":"2022-065G","EPOCH":"2026-04-26T20:21:55.843200","MEAN_MOTION":14.61782976,"ECCENTRICITY":0.00076818,"INCLINATION":98.2184,"RA_OF_ASC_NODE":259.6118,"ARG_OF_PERICENTER":177.2077,"MEAN_ANOMALY":182.9168,"EPHEMERIS_TYPE":0,"CLASSIFICATION_TYPE":"U","NORAD_CAT_ID":52900,"ELEMENT_SET_NO":999,"REV_AT_EPOCH":20294,"BSTAR":0.00013794852,"MEAN_MOTION_DOT":6.41e-6,"MEAN_MOTION_DDOT":0},{"OBJECT_NAME":"STARLINK-4362","OBJECT_ID":"2022-077A","EPOCH":"2026-04-26T11:52:10.943904","MEAN_MOTION":15.05646548,"ECCENTRICITY":0.00014592,"INCLINATION":97.5673,"RA_OF_ASC_NODE":297.1587,"ARG_OF_PERICENTER":94.2253,"MEAN_ANOMALY":265.914,"EPHEMERIS_TYPE":0,"CLASSIFICATION_TYPE":"U","NORAD_CAT_ID":53043,"ELEMENT_SET_NO":999,"REV_AT_EPOCH":20810,"BSTAR":-4.519135e-6,"MEAN_MOTION_DOT":-1.25e-6,"MEAN_MOTION_DDOT":0},{"OBJECT_NAME":"LARES-2","OBJECT_ID":"2022-080A","EPOCH":"2026-04-24T22:52:30.311904","MEAN_MOTION":6.38965121,"ECCENTRICITY":0.00053586,"INCLINATION":70.1721,"RA_OF_ASC_NODE":323.5864,"ARG_OF_PERICENTER":346.5295,"MEAN_ANOMALY":13.5246,"EPHEMERIS_TYPE":0,"CLASSIFICATION_TYPE":"U","NORAD_CAT_ID":53105,"ELEMENT_SET_NO":999,"REV_AT_EPOCH":8826,"BSTAR":0,"MEAN_MOTION_DOT":-1.0e-7,"MEAN_MOTION_DDOT":0},{"OBJECT_NAME":"GREENCUBE (IO-117)","OBJECT_ID":"2022-080E","EPOCH":"2026-04-26T12:18:44.275680","MEAN_MOTION":6.4258338,"ECCENTRICITY":0.00087821,"INCLINATION":70.1461,"RA_OF_ASC_NODE":316.2254,"ARG_OF_PERICENTER":301.5806,"MEAN_ANOMALY":58.3996,"EPHEMERIS_TYPE":0,"CLASSIFICATION_TYPE":"U","NORAD_CAT_ID":53109,"ELEMENT_SET_NO":999,"REV_AT_EPOCH":8874,"BSTAR":0,"MEAN_MOTION_DOT":-3.0e-8,"MEAN_MOTION_DDOT":0},{"OBJECT_NAME":"STARLINK-4410","OBJECT_ID":"2022-084R","EPOCH":"2026-04-26T22:00:00.999936","MEAN_MOTION":15.08801848,"ECCENTRICITY":0.00013402,"INCLINATION":97.6013,"RA_OF_ASC_NODE":177.596,"ARG_OF_PERICENTER":87.4769,"MEAN_ANOMALY":121.9084,"EPHEMERIS_TYPE":0,"CLASSIFICATION_TYPE":"U","NORAD_CAT_ID":53204,"ELEMENT_SET_NO":999,"REV_AT_EPOCH":572,"BSTAR":0.018516923,"MEAN_MOTION_DOT":0.00303554,"MEAN_MOTION_DDOT":0}]
