DAQI-1                  
1 52257U 22039A   26116.93715510  .00000256  00000+0  66143-4 0  9990
2 52257  98.1452  56.8578 0004931  62.3158 297.8541 14.57645014214474
BRO-6                   
1 52422U 22047AE  26116.97232704  .00036858  00000+0  71887-3 0  9993
2 52422  97.3394 207.1709 0003877 239.8387 120.2479 15.47419326223221
JILIN-1 GAOFEN 3D27     
1 52444U 22048B   26116.91366158  .00082784  00000+0  81437-3 0  9994
2 52444  97.5658 226.6522 0005498 212.8623 147.2295 15.65723044221435
JILIN-1 GAOFEN 3D28     
1 52445U 22048C   26116.92469533  .00088028  00000+0  80469-3 0  9998
2 52445  97.5599 226.6675 0003972 222.3444 137.7510 15.67545150221471
VIGORIDE-3              
1 52760U 22057AE  26116.84123593  .00006312  00000+0  24297-3 0  9995
2 52760  97.6522 255.5005 0007291 310.2437  49.8162 15.26724015217322
ION SCV-006             
1 52761U 22057AF  26116.92326527  .00010553  00000+0  23133-3 0  9997
2 52761  97.6029 263.1563 0016465 301.4613  58.5024 15.44141039218201
SHERPA-AC1              
1 52763U 22057AH  26116.92333984  .00008436  00000+0  24679-3 0  9997
2 52763  97.6610 264.0641 0006353 274.5368  85.5149 15.35511591217838
OMNI-L2                 
1 52771U 22057AR  26116.71701073  .00001571  00000+0  20776-3 0  9998
2 52771  97.4744 182.5313 0008120 127.1978 232.9978 14.81229617212778
STEP CUBE LAB-II        
1 52897U 22065D   26116.91838013  .00001055  00000+0  21418-3 0  9994
2 52897  98.2147 261.0006 0008572 176.9910 183.1345 14.63216526204001
RANDEV                  
1 52898U 22065E   26116.93295627  .00000947  00000+0  19162-3 0  9997
2 52898  98.2135 261.3440 0007892 176.6544 183.4712 14.63600107203752
SNUGLITE-II             
1 52899U 22065F   26116.91806580  .00001075  00000+0  21310-3 0  9993
2 52899  98.2129 261.8628 0007621 175.2650 184.8626 14.64246653203495
MIMAN                   
1 52900U 22065G   26116.84856300  .00000641  00000+0  13795-3 0  9999
2 52900  98.2184 259.6118 0007681 177.2077 182.9168 14.61782976202948
STARLINK-4362           
1 53043U 22077A   26116.49457111 -.00000125  00000+0 -45191-5 0  9995
2 53043  97.5673 297.1587 0001459  94.2253 265.9140 15.05646548208109
LARES-2                 
1 53105U 22080A   26114.95312861 -.00000010  00000+0  00000+0 0  9995
2 53105  70.1721 323.5864 0005358 346.5295  13.5246  6.38965121 88266
GREENCUBE (IO-117)      
1 53109U 22080E   26116.51301245 -.00000003  00000+0  00000+0 0  9999
2 53109  70.1461 316.2254 0008782 301.5806  58.3996  6.42583380 88746
STARLINK-4410           
1 53204U 22084R   26116.91667824  .00303554  00000+0  18517-1 0  9991
2 53204  97.6013 177.5960 0001340  87.4769 121.9084 15.08801848  5728
